{"fetched_at":"2026-05-10T09:29:45Z","count":17321,"tles":[{"name":"STARLINK-6071","line1":"1 56132U 23046AS  26129.43134241  .00000700  00000+0  34973-4 0  9990","line2":"2 56132  43.0032 163.6214 0002312 276.8796  83.1793 15.27581625171492","category":"Starlink"},{"name":"STARLINK-11183 [DTC]","line1":"1 60189U 24124G   26129.51838640 -.00001798  00000+0 -99911-5 0  9992","line2":"2 60189  53.1587 221.7041 0000983  86.0454 274.0676 15.69698786106081","category":"Starlink"},{"name":"STARLINK-35861","line1":"1 66355U 25254H   26127.93756515  .00030973  00000+0  10537-2 0  9991","line2":"2 66355  53.1595 317.4769 0000945  81.4556 278.6552 15.30195951 28047","category":"Starlink"},{"name":"COSMOS 2251 DEB","line1":"1 36045U 93036AXG 26101.49721803  .00010247  00000+0  15531-2 0  9993","line2":"2 36045  73.7634 182.3978 0044873 180.8464 179.2639 14.73546306101508","category":"Other"},{"name":"STARLINK-3575","line1":"1 51878U 22022AC  26129.34183395  .00000202  00000+0  30763-4 0  9999","line2":"2 51878  53.2181  96.8404 0001470  79.9440 280.1718 15.08836955232270","category":"Starlink"},{"name":"STARLINK-33587","line1":"1 63469U 25070K   26129.46990479  .00013039  00000+0  48225-3 0  9999","line2":"2 63469  42.9997 276.3976 0001427 222.9981 137.0759 15.27597116 62270","category":"Starlink"},{"name":"STARLINK-6127","line1":"1 76127C 23090AL  23185.73312500 -.00980076  00000-0 -59599-2 0  1855","line2":"2 76127  43.0011 214.5564 0001400 268.4678 133.3944 15.77485191    13","category":"Starlink"},{"name":"IRIDIUM 33 DEB","line1":"1 39779U 97051AAL 23176.93052292  .00011329  00000+0  30925-2 0  9994","line2":"2 39779  86.2972  42.7880 0053368 352.9624  68.7960 14.46391345580162","category":"Other"},{"name":"STARLINK-4526","line1":"1 53438U 22097BC  26129.46370779  .00001771  00000+0  12937-3 0  9996","line2":"2 53438  53.2167 190.9387 0001186  83.6212 276.4915 15.08830364207971","category":"Starlink"},{"name":"FENGYUN 1C DEB","line1":"1 31443U 99025BUF 26102.57201124  .00003640  00000+0  75307-3 0  9990","line2":"2 31443  99.2078 218.1768 0187826  98.3203 263.9333 14.50490391686928","category":"Weather"},{"name":"STARLINK-2257","line1":"1 47787U 21018A   26129.53410191  .00001403  00000+0  59499-4 0  9996","line2":"2 47787  53.1602 322.7215 0001387  92.4254 267.6906 15.30186312286001","category":"Starlink"},{"name":"CERES-1 R/B","line1":"1 57423U 23103C   23232.40156366  .00015260  00000+0  38005-3 0  9995","line2":"2 57423  96.6256 317.8382 0058019 283.6241  75.8549 15.38547014  4491","category":"Other"},{"name":"STARLINK-30563","line1":"1 58042U 23156Q   26129.45243977  .00002730  00000+0  10429-3 0  9997","line2":"2 58042  53.1591 153.5170 0001308  74.9554 285.1592 15.30193380145659","category":"Starlink"},{"name":"STARLINK-34328","line1":"1 64220U 25117T   26129.28697492  .00008088  00000+0  28480-3 0  9995","line2":"2 64220  53.1594 118.1166 0001104  89.0198 271.0929 15.30209279 53802","category":"Starlink"},{"name":"STARLINK-11253 [DTC]","line1":"1 60935U 24155M   26129.46448720 -.00001120  00000+0 -43777-5 0  9993","line2":"2 60935  53.1594  41.9501 0001266  62.1521 297.9625 15.69724410 97942","category":"Starlink"},{"name":"HULIANWANG DIGUI-123","line1":"1 67063U 25295E   26129.40576108 -.00000100  00000+0  50798-4 0  9990","line2":"2 67063  50.0016 164.5856 0000694 293.6500  66.4299 13.29327259 20343","category":"Other"},{"name":"GPS BIIA-14 (PRN 26)","line1":"1 22014C 92039A   08002.69761574 -.00000000  00000-0  00000-0 0 43637","line2":"2 22014  56.9118   1.8381 0183324  50.8237 151.3636  2.00575685    12","category":"GPS"},{"name":"IRIDIUM 145","line1":"1 43253U 18030E   26129.54077958  .00000035  00000+0  54635-5 0  9999","line2":"2 43253  86.3932 306.5741 0002135  81.7134 278.4304 14.34217652424587","category":"Other"},{"name":"ONEWEB-0592","line1":"1 54658U 22166S   26129.40492019 -.00002370  00000+0 -57712-2 0  9991","line2":"2 54658  87.9247 251.6798 0002006 103.1300 257.0058 13.21835170166316","category":"Other"},{"name":"2024-043U","line1":"1 59116U 24043U   24094.57777188  .00023645  00000+0  11569-2 0  9997","line2":"2 59116  97.4574 219.4042 0013935 201.4253 158.6400 15.18111418  4492","category":"Other"},{"name":"STARLINK-34797","line1":"1 65363U 25190N   26129.49490411  .00009019  00000+0  31639-3 0  9995","line2":"2 65363  53.1585 245.8262 0000839  55.6075 304.5005 15.30186528 39063","category":"Starlink"},{"name":"FENGYUN 1C DEB","line1":"1 33623U 99025DDG 23173.24576033  .00006000  00000+0  31501-2 0  9995","line2":"2 33623  98.1806 339.0950 0082904  67.0057 293.9835 14.12694660795805","category":"Weather"},{"name":"YAOGAN-30 10B","line1":"1 48861U 21055B   26129.17858132  .00002033  00000+0  15228-3 0  9993","line2":"2 48861  34.9960  29.5846 0002876  97.3573 262.7462 15.02485094267306","category":"Other"},{"name":"STARLINK-32674","line1":"1 62434U 24251C   26129.11345022  .00019915  00000+0  68247-3 0  9995","line2":"2 62434  53.1611  54.3550 0001353  84.7410 275.3746 15.30211513 77208","category":"Starlink"},{"name":"STARLINK-36868","line1":"1 68120U 26044V   26129.42107149  .00003911  00000+0  12343-3 0  9990","line2":"2 68120  97.2855  90.3227 0001800  94.1109 266.0339 15.33438001 10896","category":"Starlink"},{"name":"FENGYUN 1C DEB","line1":"1 30068U 99025PV  26104.93336180  .00000191  00000+0  10777-3 0  9993","line2":"2 30068  98.7496  94.7691 0189960 358.6584   1.4055 14.12145133990828","category":"Weather"},{"name":"STARLINK-1523","line1":"1 46028U 20055B   26129.52626080 -.00000190  00000+0  57101-5 0  9990","line2":"2 46028  53.1610 204.1212 0001087  99.9167 260.1956 15.30178708318211","category":"Starlink"},{"name":"PLEIADES YEARLING","line1":"1 56207U 23054AF  23362.41586163  .00037837  00000+0  10478-2 0  9993","line2":"2 56207  97.3880 256.6744 0012954  51.7533 308.4875 15.36797276 39882","category":"Other"},{"name":"STARLINK-32135","line1":"1 60277U 24131Y   26129.38970854  .00000917  00000+0  43112-4 0  9998","line2":"2 60277  53.1598 130.3666 0001324  84.6200 275.4952 15.30186986101014","category":"Starlink"},{"name":"HULIANWANG DIGUI-103","line1":"1 66419U 25258H   26129.16214325 -.00000097  00000+0  58002-4 0  9997","line2":"2 66419  50.0007  75.3119 0000815 359.5740   0.5132 13.29321522 24549","category":"Other"},{"name":"FENGYUN 1C DEB","line1":"1 36204U 99025DUD 26102.03961357  .00002241  00000+0  79474-3 0  9997","line2":"2 36204  99.2875 213.1785 0020338 170.8365 189.3193 14.35478709961536","category":"Weather"},{"name":"STARLINK-3643","line1":"1 51992U 22025AN  26129.34459704  .00000534  00000+0  51634-4 0  9997","line2":"2 51992  53.2162 106.8291 0001304  82.0361 278.0779 15.08846534230067","category":"Starlink"},{"name":"STARLINK-11626 [DTC]","line1":"1 63556U 25075J   26129.34404843  .00163551  00000+0  12489-2 0  9990","line2":"2 63556  42.9991 148.5822 0000728 215.7372 144.3447 15.70922185 62785","category":"Starlink"},{"name":"STARLINK-6230","line1":"1 76230C 23094L   23189.75118056  .00514025  00000-0  74017-3 0  1892","line2":"2 76230  42.9965 313.6287 0077227 152.4592 320.5145 15.98114767    18","category":"Starlink"},{"name":"ORBCOMM FM111","line1":"1 40089U 14040D   26105.08507801  .00001172  00000+0  14754-3 0  9997","line2":"2 40089  47.0029 356.0985 0028728 201.5397 158.4294 14.88550813635173","category":"Other"},{"name":"YAOGAN-35 04A","line1":"1 53522U 22100A   26129.70803515  .00000317  00000+0  14757-4 0  9999","line2":"2 53522  35.0104 293.7569 0007226 268.4810  91.5077 15.22922344207393","category":"Other"},{"name":"FENGYUN 1C DEB","line1":"1 31535U 99025BYA 26071.34348109  .00001814  00000+0  70870-3 0  9998","line2":"2 31535  98.0295 279.2227 0085842 256.6364 102.5238 14.28666986732102","category":"Weather"},{"name":"YAOGAN-31 04C","line1":"1 47857U 21020D   26129.51084968  .00000021  00000+0  17140-3 0  9995","line2":"2 47857  63.4083 357.4618 0171552   0.3184 359.7922 13.45445352253258","category":"Other"},{"name":"NULION","line1":"1 57487U 23109G   23341.84479312  .00001898  00000+0  48614-4 0  9999","line2":"2 57487   5.0074  10.1938 0003778 182.8478 177.1609 15.16285066 19791","category":"Other"},{"name":"STARLINK-30612","line1":"1 58106U 23161K   26128.58946666  .00051986  00000+0  17342-2 0  9999","line2":"2 58106  53.1605 234.2913 0001163 120.1053 240.0063 15.30588187143772","category":"Starlink"},{"name":"HULIANWANG DIGUI-31","line1":"1 64284U 25121B   26129.48008392  .00000041  00000+0  60836-4 0  9990","line2":"2 64284  86.5042  26.6828 0001593  81.9423 278.1892 13.24411023 45038","category":"Other"},{"name":"STARLINK-11270 [DTC]","line1":"1 60999U 24158K   26129.30284961  .00164558  00000+0  13336-2 0  9992","line2":"2 60999  53.1567 342.5340 0001308  64.8002 295.3151 15.69759056 97101","category":"Starlink"},{"name":"STARLINK-36164","line1":"1 67127U 25299AB  26129.45943058  .00018206  00000+0  66913-3 0  9992","line2":"2 67127  43.0026 185.4907 0000456 295.3055  64.7749 15.27597779 22413","category":"Starlink"},{"name":"STARLINK-31394","line1":"1 59185U 24045H   26129.37297829  .00000588  00000+0  30904-4 0  9990","line2":"2 59185  43.0031  99.3357 0001114 290.5690  69.5042 15.27579902122564","category":"Starlink"},{"name":"STARLINK-34916","line1":"1 65427U 25192Z   26128.82133421  .00016430  00000+0  56553-3 0  9996","line2":"2 65427  53.1585 312.8310 0001235  84.1519 275.9622 15.30206462 38597","category":"Starlink"},{"name":"STARLINK-32739","line1":"1 62498U 25003M   26129.51117758  .00010976  00000+0  40740-3 0  9994","line2":"2 62498  43.0002 305.4604 0001721 286.9069  73.1594 15.27610656 75924","category":"Starlink"},{"name":"STARLINK-36964","line1":"1 68184U 26050T   26129.29871990  .00023907  00000+0  61854-3 0  9992","line2":"2 68184  53.1583 345.8690 0000467  42.7394 317.3647 15.38980535  9956","category":"Starlink"}]}